{"type": "FeatureCollection", "features": [ {"type": "Feature", "properties": {"norad_id": 44476, "name": "INTELSAT 39 (IS-39)", "group": "intelsat", "lat": 0.027561098644036826, "lon": 37.454077921224744, "alt_km": 35785.654926223186, "timestamp": "2025-12-14T16:47:40.351058+00:00", "meta": {"OBJECT_NAME": "INTELSAT 39 (IS-39)", "OBJECT_ID": "2019-049B", "EPOCH": "2025-12-13T22:18:17.180064", "MEAN_MOTION": 1.0027162, "ECCENTRICITY": 9.87e-05, "INCLINATION": 0.0117, "RA_OF_ASC_NODE": 343.6301, "ARG_OF_PERICENTER": 138.2749, "MEAN_ANOMALY": 357.4644, "EPHEMERIS_TYPE": 0, "CLASSIFICATION_TYPE": "U", "NORAD_CAT_ID": 44476, "ELEMENT_SET_NO": 999, "REV_AT_EPOCH": 2327, "BSTAR": 0, "MEAN_MOTION_DOT": 5e-07, "MEAN_MOTION_DDOT": 0}, "tle": {"line1": "1 44476U 19049B   25347.92936551  .00000050  00000+0  00000+0 0  9992", "line2": "2 44476   0.0117 343.6301 0000987 138.2749 357.4644  1.00271620 23270"}}, "geometry": {"type": "Point", "coordinates": [37.454077921224744, 0.027561098644036826]}}, {"type": "Feature", "properties": {"norad_id": 46114, "name": "GALAXY 30 (G-30)", "group": "intelsat", "lat": -0.03018070162044247, "lon": -149.48291654075229, "alt_km": 35780.06938155932, "timestamp": "2025-12-14T16:47:40.351069+00:00", "meta": {"OBJECT_NAME": "GALAXY 30 (G-30)", "OBJECT_ID": "2020-056C", "EPOCH": "2025-12-13T16:16:42.007872", "MEAN_MOTION": 1.00273279, "ECCENTRICITY": 0.00021703, "INCLINATION": 0.0186, "RA_OF_ASC_NODE": 344.0931, "ARG_OF_PERICENTER": 279.4868, "MEAN_ANOMALY": 298.2109, "EPHEMERIS_TYPE": 0, "CLASSIFICATION_TYPE": "U", "NORAD_CAT_ID": 46114, "ELEMENT_SET_NO": 999, "REV_AT_EPOCH": 1943, "BSTAR": 0, "MEAN_MOTION_DOT": 5.2e-07, "MEAN_MOTION_DDOT": 0}, "tle": {"line1": "1 46114U 20056C   25347.67826398  .00000052  00000+0  00000+0 0  9994", "line2": "2 46114   0.0186 344.0931 0002170 279.4868 298.2109  1.00273279 19430"}}, "geometry": {"type": "Point", "coordinates": [-149.48291654075229, -0.03018070162044247]}}, {"type": "Feature", "properties": {"norad_id": 54026, "name": "GALAXY 33 (G-33)", "group": "intelsat", "lat": -0.01977023911939933, "lon": -157.49255426138765, "alt_km": 35781.18172709127, "timestamp": "2025-12-14T16:47:40.351085+00:00", "meta": {"OBJECT_NAME": "GALAXY 33 (G-33)", "OBJECT_ID": "2022-128A", "EPOCH": "2025-12-13T16:14:27.223008", "MEAN_MOTION": 1.0027218, "ECCENTRICITY": 0.0001894, "INCLINATION": 0.0117, "RA_OF_ASC_NODE": 351.7479, "ARG_OF_PERICENTER": 264.8919, "MEAN_ANOMALY": 296.5798, "EPHEMERIS_TYPE": 0, "CLASSIFICATION_TYPE": "U", "NORAD_CAT_ID": 54026, "ELEMENT_SET_NO": 999, "REV_AT_EPOCH": 1188, "BSTAR": 0, "MEAN_MOTION_DOT": 9.4e-07, "MEAN_MOTION_DDOT": 0}, "tle": {"line1": "1 54026U 22128A   25347.67670397  .00000094  00000+0  00000+0 0  9999", "line2": "2 54026   0.0117 351.7479 0001894 264.8919 296.5798  1.00272180 11880"}}, "geometry": {"type": "Point", "coordinates": [-157.49255426138765, -0.01977023911939933]}}, {"type": "Feature", "properties": {"norad_id": 54027, "name": "GALAXY 34 (G-34)", "group": "intelsat", "lat": -0.02527698785653729, "lon": -153.42556715709628, "alt_km": 35782.60579524615, "timestamp": "2025-12-14T16:47:40.351098+00:00", "meta": {"OBJECT_NAME": "GALAXY 34 (G-34)", "OBJECT_ID": "2022-128B", "EPOCH": "2025-12-13T16:15:34.615872", "MEAN_MOTION": 1.0027043, "ECCENTRICITY": 0.0001377, "INCLINATION": 0.0218, "RA_OF_ASC_NODE": 357.2805, "ARG_OF_PERICENTER": 258.9039, "MEAN_ANOMALY": 301.3847, "EPHEMERIS_TYPE": 0, "CLASSIFICATION_TYPE": "U", "NORAD_CAT_ID": 54027, "ELEMENT_SET_NO": 999, "REV_AT_EPOCH": 1205, "BSTAR": 0, "MEAN_MOTION_DOT": 0, "MEAN_MOTION_DDOT": 0}, "tle": {"line1": "1 54027U 22128B   25347.67748398  .00000000  00000+0  00000+0 0  9994", "line2": "2 54027   0.0218 357.2805 0001377 258.9039 301.3847  1.00270430 12056"}}, "geometry": {"type": "Point", "coordinates": [-153.42556715709628, -0.02527698785653729]}}, {"type": "Feature", "properties": {"norad_id": 54243, "name": "GALAXY 31 (G-31)", "group": "intelsat", "lat": -0.028322834668833098, "lon": -145.50399084333213, "alt_km": 35783.46861658169, "timestamp": "2025-12-14T16:47:40.351124+00:00", "meta": {"OBJECT_NAME": "GALAXY 31 (G-31)", "OBJECT_ID": "2022-153A", "EPOCH": "2025-12-13T21:26:07.177632", "MEAN_MOTION": 1.0027071, "ECCENTRICITY": 0.00015139, "INCLINATION": 0.0123, "RA_OF_ASC_NODE": 337.5951, "ARG_OF_PERICENTER": 300.3689, "MEAN_ANOMALY": 5.3769, "EPHEMERIS_TYPE": 0, "CLASSIFICATION_TYPE": "U", "NORAD_CAT_ID": 54243, "ELEMENT_SET_NO": 999, "REV_AT_EPOCH": 527, "BSTAR": 0, "MEAN_MOTION_DOT": 0, "MEAN_MOTION_DDOT": 0}, "tle": {"line1": "1 54243U 22153A   25347.89313863  .00000000  00000+0  00000+0 0  9991", "line2": "2 54243   0.0123 337.5951 0001513 300.3689   5.3769  1.00270710  5270"}}, "geometry": {"type": "Point", "coordinates": [-145.50399084333213, -0.028322834668833098]}}, {"type": "Feature", "properties": {"norad_id": 54244, "name": "GALAXY 32 (G-32)", "group": "intelsat", "lat": -0.027359418254403783, "lon": -115.50324540796655, "alt_km": 35782.02091078656, "timestamp": "2025-12-14T16:47:40.351137+00:00", "meta": {"OBJECT_NAME": "GALAXY 32 (G-32)", "OBJECT_ID": "2022-153B", "EPOCH": "2025-12-12T13:02:51.144864", "MEAN_MOTION": 1.00272099, "ECCENTRICITY": 0.00025848, "INCLINATION": 0.0111, "RA_OF_ASC_NODE": 11.8146, "ARG_OF_PERICENTER": 300.84, "MEAN_ANOMALY": 233.5475, "EPHEMERIS_TYPE": 0, "CLASSIFICATION_TYPE": "U", "NORAD_CAT_ID": 54244, "ELEMENT_SET_NO": 999, "REV_AT_EPOCH": 1127, "BSTAR": 0, "MEAN_MOTION_DOT": -1.63e-06, "MEAN_MOTION_DDOT": 0}, "tle": {"line1": "1 54244U 22153B   25346.54364751 -.00000163  00000+0  00000+0 0  9996", "line2": "2 54244   0.0111  11.8146 0002584 300.8400 233.5475  1.00272099 11279"}}, "geometry": {"type": "Point", "coordinates": [-115.50324540796655, -0.027359418254403783]}}, {"type": "Feature", "properties": {"norad_id": 54741, "name": "GALAXY 35 (G-35)", "group": "intelsat", "lat": -0.02712065288805164, "lon": -117.58693896218888, "alt_km": 35777.11345745594, "timestamp": "2025-12-14T16:47:40.351149+00:00", "meta": {"OBJECT_NAME": "GALAXY 35 (G-35)", "OBJECT_ID": "2022-170A", "EPOCH": "2025-12-13T21:33:58.924224", "MEAN_MOTION": 1.00271141, "ECCENTRICITY": 0.0002418, "INCLINATION": 0.0152, "RA_OF_ASC_NODE": 291.6452, "ARG_OF_PERICENTER": 337.014, "MEAN_ANOMALY": 44.5656, "EPHEMERIS_TYPE": 0, "CLASSIFICATION_TYPE": "U", "NORAD_CAT_ID": 54741, "ELEMENT_SET_NO": 999, "REV_AT_EPOCH": 1103, "BSTAR": 0, "MEAN_MOTION_DOT": -1.46e-06, "MEAN_MOTION_DDOT": 0}, "tle": {"line1": "1 54741U 22170A   25347.89859866 -.00000146  00000+0  00000+0 0  9993", "line2": "2 54741   0.0152 291.6452 0002418 337.0140  44.5656  1.00271141 11035"}}, "geometry": {"type": "Point", "coordinates": [-117.58693896218888, -0.02712065288805164]}}, {"type": "Feature", "properties": {"norad_id": 54742, "name": "GALAXY 36 (G-36)", "group": "intelsat", "lat": -0.009865743912187298, "lon": -113.47501491872521, "alt_km": 35785.27439124178, "timestamp": "2025-12-14T16:47:40.351160+00:00", "meta": {"OBJECT_NAME": "GALAXY 36 (G-36)", "OBJECT_ID": "2022-170B", "EPOCH": "2025-12-13T21:35:13.805376", "MEAN_MOTION": 1.00272115, "ECCENTRICITY": 3.508e-05, "INCLINATION": 0.0391, "RA_OF_ASC_NODE": 136.7732, "ARG_OF_PERICENTER": 168.8454, "MEAN_ANOMALY": 12.0193, "EPHEMERIS_TYPE": 0, "CLASSIFICATION_TYPE": "U", "NORAD_CAT_ID": 54742, "ELEMENT_SET_NO": 999, "REV_AT_EPOCH": 1091, "BSTAR": 0, "MEAN_MOTION_DOT": -1.69e-06, "MEAN_MOTION_DDOT": 0}, "tle": {"line1": "1 54742U 22170B   25347.89946534 -.00000169  00000+0  00000+0 0  9998", "line2": "2 54742   0.0391 136.7732 0000350 168.8454  12.0193  1.00272115 10916"}}, "geometry": {"type": "Point", "coordinates": [-113.47501491872521, -0.009865743912187298]}}, {"type": "Feature", "properties": {"norad_id": 57493, "name": "GALAXY 37 (G-37)", "group": "intelsat", "lat": -0.007004653843416238, "lon": -151.4935430592604, "alt_km": 35781.37049959041, "timestamp": "2025-12-14T16:47:40.351172+00:00", "meta": {"OBJECT_NAME": "GALAXY 37 (G-37)", "OBJECT_ID": "2023-112A", "EPOCH": "2025-12-13T21:24:07.369344", "MEAN_MOTION": 1.00272209, "ECCENTRICITY": 0.00020867, "INCLINATION": 0.0181, "RA_OF_ASC_NODE": 44.8489, "ARG_OF_PERICENTER": 222.8536, "MEAN_ANOMALY": 9.1488, "EPHEMERIS_TYPE": 0, "CLASSIFICATION_TYPE": "U", "NORAD_CAT_ID": 57493, "ELEMENT_SET_NO": 999, "REV_AT_EPOCH": 868, "BSTAR": 0, "MEAN_MOTION_DOT": 6.4e-07, "MEAN_MOTION_DDOT": 0}, "tle": {"line1": "1 57493U 23112A   25347.89175196  .00000064  00000+0  00000+0 0  9992", "line2": "2 57493   0.0181  44.8489 0002086 222.8536   9.1488  1.00272209  8686"}}, "geometry": {"type": "Point", "coordinates": [-151.4935430592604, -0.007004653843416238]}}]}